[{"OBJECT_NAME":"ONEWEB-0035","OBJECT_ID":"2020-008N","EPOCH":"2025-08-17T13:29:58.971840","MEAN_MOTION":13.10369628,"ECCENTRICITY":0.0001654,"INCLINATION":87.8765,"RA_OF_ASC_NODE":96.8499,"ARG_OF_PERICENTER":78.0206,"MEAN_ANOMALY":282.1107,"EPHEMERIS_TYPE":0,"CLASSIFICATION_TYPE":"U","NORAD_CAT_ID":45143,"ELEMENT_SET_NO":999,"REV_AT_EPOCH":26906,"BSTAR":0.00017205,"MEAN_MOTION_DOT":7.3e-7,"MEAN_MOTION_DDOT":0},{"OBJECT_NAME":"ONEWEB-0036","OBJECT_ID":"2020-008P","EPOCH":"2025-08-17T07:45:46.901664","MEAN_MOTION":13.10369784,"ECCENTRICITY":0.0001963,"INCLINATION":87.8777,"RA_OF_ASC_NODE":96.8418,"ARG_OF_PERICENTER":85.8643,"MEAN_ANOMALY":274.2708,"EPHEMERIS_TYPE":0,"CLASSIFICATION_TYPE":"U","NORAD_CAT_ID":45144,"ELEMENT_SET_NO":999,"REV_AT_EPOCH":26857,"BSTAR":0.0015292,"MEAN_MOTION_DOT":5.46e-6,"MEAN_MOTION_DDOT":0},{"OBJECT_NAME":"ONEWEB-0038","OBJECT_ID":"2020-008Q","EPOCH":"2025-08-17T14:01:00.128928","MEAN_MOTION":13.11417145,"ECCENTRICITY":0.0002883,"INCLINATION":87.8789,"RA_OF_ASC_NODE":81.5639,"ARG_OF_PERICENTER":47.1001,"MEAN_ANOMALY":313.0368,"EPHEMERIS_TYPE":0,"CLASSIFICATION_TYPE":"U","NORAD_CAT_ID":45145,"ELEMENT_SET_NO":999,"REV_AT_EPOCH":27053,"BSTAR":0.0016788,"MEAN_MOTION_DOT":6.08e-6,"MEAN_MOTION_DDOT":0},{"OBJECT_NAME":"ONEWEB-0039","OBJECT_ID":"2020-008R","EPOCH":"2025-08-17T14:40:30.681408","MEAN_MOTION":13.10375033,"ECCENTRICITY":0.0002238,"INCLINATION":87.8775,"RA_OF_ASC_NODE":96.8054,"ARG_OF_PERICENTER":80.8042,"MEAN_ANOMALY":279.3338,"EPHEMERIS_TYPE":0,"CLASSIFICATION_TYPE":"U","NORAD_CAT_ID":45146,"ELEMENT_SET_NO":999,"REV_AT_EPOCH":26840,"BSTAR":0.0012746,"MEAN_MOTION_DOT":4.58e-6,"MEAN_MOTION_DDOT":0},{"OBJECT_NAME":"ONEWEB-0040","OBJECT_ID":"2020-008S","EPOCH":"2025-08-17T14:30:56.649312","MEAN_MOTION":13.10377447,"ECCENTRICITY":0.0001779,"INCLINATION":87.8781,"RA_OF_ASC_NODE":96.836,"ARG_OF_PERICENTER":79.2567,"MEAN_ANOMALY":280.8761,"EPHEMERIS_TYPE":0,"CLASSIFICATION_TYPE":"U","NORAD_CAT_ID":45147,"ELEMENT_SET_NO":999,"REV_AT_EPOCH":26810,"BSTAR":0.00030527,"MEAN_MOTION_DOT":1.19e-6,"MEAN_MOTION_DDOT":0},{"OBJECT_NAME":"ONEWEB-0043","OBJECT_ID":"2020-008U","EPOCH":"2025-08-17T14:33:20.343744","MEAN_MOTION":13.10377434,"ECCENTRICITY":0.0002146,"INCLINATION":87.8775,"RA_OF_ASC_NODE":96.8192,"ARG_OF_PERICENTER":87.7769,"MEAN_ANOMALY":272.3604,"EPHEMERIS_TYPE":0,"CLASSIFICATION_TYPE":"U","NORAD_CAT_ID":45149,"ELEMENT_SET_NO":999,"REV_AT_EPOCH":26842,"BSTAR":0.00058208,"MEAN_MOTION_DOT":2.16e-6,"MEAN_MOTION_DDOT":0},{"OBJECT_NAME":"ONEWEB-0044","OBJECT_ID":"2020-008V","EPOCH":"2025-08-17T15:13:58.274400","MEAN_MOTION":13.10370765,"ECCENTRICITY":0.0001969,"INCLINATION":87.8769,"RA_OF_ASC_NODE":96.805,"ARG_OF_PERICENTER":84.8952,"MEAN_ANOMALY":275.24,"EPHEMERIS_TYPE":0,"CLASSIFICATION_TYPE":"U","NORAD_CAT_ID":45150,"ELEMENT_SET_NO":999,"REV_AT_EPOCH":26872,"BSTAR":0.00098035,"MEAN_MOTION_DOT":3.55e-6,"MEAN_MOTION_DDOT":0},{"OBJECT_NAME":"ONEWEB-0045","OBJECT_ID":"2020-008W","EPOCH":"2025-08-17T13:53:28.612896","MEAN_MOTION":13.11415784,"ECCENTRICITY":0.0001822,"INCLINATION":87.8786,"RA_OF_ASC_NODE":81.5372,"ARG_OF_PERICENTER":80.2537,"MEAN_ANOMALY":279.8797,"EPHEMERIS_TYPE":0,"CLASSIFICATION_TYPE":"U","NORAD_CAT_ID":45151,"ELEMENT_SET_NO":999,"REV_AT_EPOCH":27061,"BSTAR":0.0016849,"MEAN_MOTION_DOT":6.1e-6,"MEAN_MOTION_DDOT":0},{"OBJECT_NAME":"ONEWEB-0047","OBJECT_ID":"2020-008X","EPOCH":"2025-08-17T09:34:32.215008","MEAN_MOTION":13.10372557,"ECCENTRICITY":0.000185,"INCLINATION":87.8771,"RA_OF_ASC_NODE":96.8616,"ARG_OF_PERICENTER":80.7299,"MEAN_ANOMALY":279.4037,"EPHEMERIS_TYPE":0,"CLASSIFICATION_TYPE":"U","NORAD_CAT_ID":45152,"ELEMENT_SET_NO":999,"REV_AT_EPOCH":26841,"BSTAR":0.0014614,"MEAN_MOTION_DOT":5.23e-6,"MEAN_MOTION_DDOT":0},{"OBJECT_NAME":"ONEWEB-0048","OBJECT_ID":"2020-008Y","EPOCH":"2025-08-17T13:07:18.062976","MEAN_MOTION":13.10372497,"ECCENTRICITY":0.0001807,"INCLINATION":87.8776,"RA_OF_ASC_NODE":96.8569,"ARG_OF_PERICENTER":81.3068,"MEAN_ANOMALY":278.8264,"EPHEMERIS_TYPE":0,"CLASSIFICATION_TYPE":"U","NORAD_CAT_ID":45153,"ELEMENT_SET_NO":999,"REV_AT_EPOCH":26880,"BSTAR":0.0018713,"MEAN_MOTION_DOT":6.66e-6,"MEAN_MOTION_DDOT":0},{"OBJECT_NAME":"ONEWEB-0049","OBJECT_ID":"2020-008Z","EPOCH":"2025-08-17T15:00:50.236416","MEAN_MOTION":13.10371599,"ECCENTRICITY":0.0001756,"INCLINATION":87.8771,"RA_OF_ASC_NODE":96.8337,"ARG_OF_PERICENTER":96.5813,"MEAN_ANOMALY":263.5514,"EPHEMERIS_TYPE":0,"CLASSIFICATION_TYPE":"U","NORAD_CAT_ID":45154,"ELEMENT_SET_NO":999,"REV_AT_EPOCH":26827,"BSTAR":0.0018778,"MEAN_MOTION_DOT":6.68e-6,"MEAN_MOTION_DDOT":0},{"OBJECT_NAME":"ONEWEB-0051","OBJECT_ID":"2020-008AA","EPOCH":"2025-08-17T13:51:02.346336","MEAN_MOTION":13.11416378,"ECCENTRICITY":0.0001696,"INCLINATION":87.878,"RA_OF_ASC_NODE":81.5801,"ARG_OF_PERICENTER":83.0423,"MEAN_ANOMALY":277.0898,"EPHEMERIS_TYPE":0,"CLASSIFICATION_TYPE":"U","NORAD_CAT_ID":45155,"ELEMENT_SET_NO":999,"REV_AT_EPOCH":27129,"BSTAR":0.0016078,"MEAN_MOTION_DOT":5.83e-6,"MEAN_MOTION_DDOT":0},{"OBJECT_NAME":"ONEWEB-0052","OBJECT_ID":"2020-008AB","EPOCH":"2025-08-17T13:03:42.007680","MEAN_MOTION":13.10373124,"ECCENTRICITY":0.0001934,"INCLINATION":87.8782,"RA_OF_ASC_NODE":96.7979,"ARG_OF_PERICENTER":97.381,"MEAN_ANOMALY":262.7537,"EPHEMERIS_TYPE":0,"CLASSIFICATION_TYPE":"U","NORAD_CAT_ID":45156,"ELEMENT_SET_NO":999,"REV_AT_EPOCH":26817,"BSTAR":0.0018716,"MEAN_MOTION_DOT":6.66e-6,"MEAN_MOTION_DDOT":0},{"OBJECT_NAME":"ONEWEB-0053","OBJECT_ID":"2020-008AC","EPOCH":"2025-08-17T12:38:32.432064","MEAN_MOTION":13.10379107,"ECCENTRICITY":0.0002108,"INCLINATION":87.8776,"RA_OF_ASC_NODE":96.8579,"ARG_OF_PERICENTER":76.6996,"MEAN_ANOMALY":283.4367,"EPHEMERIS_TYPE":0,"CLASSIFICATION_TYPE":"U","NORAD_CAT_ID":45157,"ELEMENT_SET_NO":999,"REV_AT_EPOCH":26814,"BSTAR":-0.00011986,"MEAN_MOTION_DOT":-2.9e-7,"MEAN_MOTION_DDOT":0},{"OBJECT_NAME":"ONEWEB-0054","OBJECT_ID":"2020-008AD","EPOCH":"2025-08-17T13:28:47.364384","MEAN_MOTION":13.10370372,"ECCENTRICITY":0.0001695,"INCLINATION":87.8767,"RA_OF_ASC_NODE":96.8246,"ARG_OF_PERICENTER":82.6049,"MEAN_ANOMALY":277.5271,"EPHEMERIS_TYPE":0,"CLASSIFICATION_TYPE":"U","NORAD_CAT_ID":45158,"ELEMENT_SET_NO":999,"REV_AT_EPOCH":26826,"BSTAR":0.00028854,"MEAN_MOTION_DOT":1.13e-6,"MEAN_MOTION_DDOT":0},{"OBJECT_NAME":"ONEWEB-0056","OBJECT_ID":"2020-008AE","EPOCH":"2025-08-17T14:51:16.468704","MEAN_MOTION":13.10373582,"ECCENTRICITY":0.0001773,"INCLINATION":87.8774,"RA_OF_ASC_NODE":96.8101,"ARG_OF_PERICENTER":81.6114,"MEAN_ANOMALY":278.5215,"EPHEMERIS_TYPE":0,"CLASSIFICATION_TYPE":"U","NORAD_CAT_ID":45159,"ELEMENT_SET_NO":999,"REV_AT_EPOCH":26842,"BSTAR":0.0017659,"MEAN_MOTION_DOT":6.29e-6,"MEAN_MOTION_DDOT":0},{"OBJECT_NAME":"ONEWEB-0057","OBJECT_ID":"2020-008AF","EPOCH":"2025-08-17T13:12:04.218048","MEAN_MOTION":13.10372877,"ECCENTRICITY":0.0001889,"INCLINATION":87.8772,"RA_OF_ASC_NODE":96.8376,"ARG_OF_PERICENTER":85.0368,"MEAN_ANOMALY":275.0975,"EPHEMERIS_TYPE":0,"CLASSIFICATION_TYPE":"U","NORAD_CAT_ID":45160,"ELEMENT_SET_NO":999,"REV_AT_EPOCH":26858,"BSTAR":0.0016697,"MEAN_MOTION_DOT":5.96e-6,"MEAN_MOTION_DDOT":0}]
