ONEWEB-0035             
1 45143U 20008N   25229.56248810  .00000073  00000+0  17205-3 0  9998
2 45143  87.8765  96.8499 0001654  78.0206 282.1107 13.10369628269067
ONEWEB-0036             
1 45144U 20008P   25229.32345951  .00000546  00000+0  15292-2 0  9995
2 45144  87.8777  96.8418 0001963  85.8643 274.2708 13.10369784268573
ONEWEB-0038             
1 45145U 20008Q   25229.58402927  .00000608  00000+0  16788-2 0  9991
2 45145  87.8789  81.5639 0002883  47.1001 313.0368 13.11417145270533
ONEWEB-0039             
1 45146U 20008R   25229.61146622  .00000458  00000+0  12746-2 0  9996
2 45146  87.8775  96.8054 0002238  80.8042 279.3338 13.10375033268404
ONEWEB-0040             
1 45147U 20008S   25229.60482233  .00000119  00000+0  30527-3 0  9999
2 45147  87.8781  96.8360 0001779  79.2567 280.8761 13.10377447268100
ONEWEB-0043             
1 45149U 20008U   25229.60648546  .00000216  00000+0  58208-3 0  9996
2 45149  87.8775  96.8192 0002146  87.7769 272.3604 13.10377434268428
ONEWEB-0044             
1 45150U 20008V   25229.63470225  .00000355  00000+0  98035-3 0  9994
2 45150  87.8769  96.8050 0001969  84.8952 275.2400 13.10370765268729
ONEWEB-0045             
1 45151U 20008W   25229.57880339  .00000610  00000+0  16849-2 0  9995
2 45151  87.8786  81.5372 0001822  80.2537 279.8797 13.11415784270616
ONEWEB-0047             
1 45152U 20008X   25229.39898397  .00000523  00000+0  14614-2 0  9990
2 45152  87.8771  96.8616 0001850  80.7299 279.4037 13.10372557268419
ONEWEB-0048             
1 45153U 20008Y   25229.54673684  .00000666  00000+0  18713-2 0  9990
2 45153  87.8776  96.8569 0001807  81.3068 278.8264 13.10372497268806
ONEWEB-0049             
1 45154U 20008Z   25229.62558144  .00000668  00000+0  18778-2 0  9996
2 45154  87.8771  96.8337 0001756  96.5813 263.5514 13.10371599268276
ONEWEB-0051             
1 45155U 20008AA  25229.57711049  .00000583  00000+0  16078-2 0  9993
2 45155  87.8780  81.5801 0001696  83.0423 277.0898 13.11416378271292
ONEWEB-0052             
1 45156U 20008AB  25229.54423620  .00000666  00000+0  18716-2 0  9999
2 45156  87.8782  96.7979 0001934  97.3810 262.7537 13.10373124268176
ONEWEB-0053             
1 45157U 20008AC  25229.52676426 -.00000029  00000+0 -11986-3 0  9990
2 45157  87.8776  96.8579 0002108  76.6996 283.4367 13.10379107268141
ONEWEB-0054             
1 45158U 20008AD  25229.56165931  .00000113  00000+0  28854-3 0  9993
2 45158  87.8767  96.8246 0001695  82.6049 277.5271 13.10370372268265
ONEWEB-0056             
1 45159U 20008AE  25229.61894061  .00000629  00000+0  17659-2 0  9995
2 45159  87.8774  96.8101 0001773  81.6114 278.5215 13.10373582268426
ONEWEB-0057             
1 45160U 20008AF  25229.55004882  .00000596  00000+0  16697-2 0  9998
2 45160  87.8772  96.8376 0001889  85.0368 275.0975 13.10372877268585
